OBJECT_NAME,OBJECT_ID,EPOCH,MEAN_MOTION,ECCENTRICITY,INCLINATION,RA_OF_ASC_NODE,ARG_OF_PERICENTER,MEAN_ANOMALY,EPHEMERIS_TYPE,CLASSIFICATION_TYPE,NORAD_CAT_ID,ELEMENT_SET_NO,REV_AT_EPOCH,BSTAR,MEAN_MOTION_DOT,MEAN_MOTION_DDOT
TRITON-1,2013-066M,2026-05-14T22:24:35.028000,14.81553955,.00899749,97.8270,45.4979,343.8519,15.9830,0,U,39427,999,66916,.18993376E-3,.1541E-4,0
GOMX-1,2013-066Q,2026-05-14T19:38:12.892128,14.69321199,.01285622,97.6513,337.3858,184.0279,175.9906,0,U,39430,999,66501,.16610736E-3,.1061E-4,0
CUBEBUG-2 (LO-74),2013-066AA,2026-05-14T20:02:02.227200,14.93497683,.00589448,97.8894,83.6844,136.7526,223.8343,0,U,39440,999,67201,.16284433E-3,.1711E-4,0
NEE-02 KRYSAOR,2013-066AB,2026-05-14T08:26:06.856800,14.86486503,.00661725,97.8883,73.8149,179.3405,180.7910,0,U,39441,999,67117,.11674427E-3,.1015E-4,0
FUNCUBE-1 (AO-73),2013-066AE,2026-05-14T21:45:59.409504,15.09039867,.00351252,97.8260,105.6735,319.6582,40.2041,0,U,39444,999,67464,.30788003E-3,.4873E-4,0
UWE-3,2013-066AG,2026-05-14T09:23:04.203168,14.96726381,.00507019,97.8680,90.2510,72.7346,287.9414,0,U,39446,999,67252,.20878072E-3,.2385E-4,0
SMDC ONE 2.4,2013-072H,2026-05-14T17:45:18.600768,15.17527045,.01401649,120.4885,223.0240,342.8497,16.7872,0,U,39469,999,11275,.24774355E-3,.6044E-4,0
COSMOS 2488 (RODNIK-S 7),2013-076A,2026-05-14T22:53:43.890144,12.42904562,.0020017,82.4864,189.3995,164.5751,195.5942,0,U,39483,999,56176,.14673599E-3,.3E-6,0
COSMOS 2489 (RODNIK-S 8),2013-076B,2026-05-14T22:17:01.034016,12.42879025,.00218716,82.4901,190.7829,164.8724,195.3014,0,U,39484,999,56181,-.25196408E-3,-.25E-6,0
COSMOS 2490 (RODNIK-S 9),2013-076C,2026-05-14T21:36:27.170208,12.42876521,.00216536,82.4847,188.8827,180.4451,179.6613,0,U,39485,999,56174,-.15575199E-3,-.12E-6,0
KAZEOSAT 1,2014-024A,2026-05-14T22:12:05.251392,14.42065188,.00016227,98.3215,208.1973,91.5200,268.6176,0,U,39731,999,63376,-.4478372E-5,-.57E-6,0
COSMOS 2496 (RODNIK-S 10),2014-028A,2026-05-14T22:31:17.188896,12.42877859,.00205128,82.4419,129.5570,148.2483,211.9838,0,U,39761,999,54338,.14112558E-2,.205E-5,0
COSMOS 2497 (RODNIK-S 11),2014-028B,2026-05-14T23:52:12.681408,12.42893523,.00211902,82.4469,131.1989,143.3155,216.9380,0,U,39762,999,54339,.10941199E-2,.162E-5,0
COSMOS 2498 (RODNIK-S 12),2014-028C,2026-05-14T23:23:16.168416,12.42979847,.00219064,82.4427,129.7129,143.1215,217.1376,0,U,39763,999,54342,.95638235E-3,.143E-5,0
HODOYOSHI-4,2014-033B,2026-05-14T22:49:32.107584,14.88049480,.00250957,97.5459,321.3807,57.8447,302.5200,0,U,40011,999,64386,.16329507E-3,.1457E-4,0
UNISAT-6,2014-033C,2026-05-14T22:00:27.537696,14.88040830,.00453733,97.7840,288.2275,176.4699,183.6846,0,U,40012,999,64121,.21391146E-3,.1946E-4,0
DEIMOS-2,2014-033D,2026-05-14T22:56:22.685568,14.93631080,.0002611,97.5886,10.6072,80.3470,279.8045,0,U,40013,999,63276,.9782362E-4,.979E-5,0
BUGSAT-1 (TITA),2014-033E,2026-05-14T22:54:46.850688,15.15219802,.00267272,98.0414,225.5721,295.3569,64.4894,0,U,40014,999,65080,.67419874E-4,.12E-4,0
SAUDISAT 4,2014-033G,2026-05-14T15:23:42.039456,14.79492337,.00448495,97.7538,281.9460,180.7176,179.3979,0,U,40016,999,64111,.64829842E-4,.44E-5,0
APRIZESAT 9,2014-033J,2026-05-14T14:37:37.634304,14.74172750,.0065034,97.9011,268.6378,309.0163,50.5266,0,U,40018,999,63861,.46851889E-4,.266E-5,0
BRITE-CA1 (TORONTO),2014-033L,2026-05-14T22:45:45.457920,14.72629327,.00791415,97.9691,264.4990,24.3162,336.1748,0,U,40020,999,63732,.69590594E-4,.412E-5,0
