TRITON-1                
1 39427U 13066M   26134.93373875  .00001541  00000+0  18993-3 0  9995
2 39427  97.8270  45.4979 0089974 343.8519  15.9830 14.81553955669168
GOMX-1                  
1 39430U 13066Q   26134.81820477  .00001061  00000+0  16611-3 0  9993
2 39430  97.6513 337.3858 0128562 184.0279 175.9906 14.69321199665014
CUBEBUG-2 (LO-74)       
1 39440U 13066AA  26134.83474800  .00001711  00000+0  16284-3 0  9999
2 39440  97.8894  83.6844 0058944 136.7526 223.8343 14.93497683672015
NEE-02 KRYSAOR          
1 39441U 13066AB  26134.35146825  .00001015  00000+0  11674-3 0  9995
2 39441  97.8883  73.8149 0066172 179.3405 180.7910 14.86486503671172
FUNCUBE-1 (AO-73)       
1 39444U 13066AE  26134.90693761  .00004873  00000+0  30788-3 0  9997
2 39444  97.8260 105.6735 0035125 319.6582  40.2041 15.09039867674641
UWE-3                   
1 39446U 13066AG  26134.39102087  .00002385  00000+0  20878-3 0  9993
2 39446  97.8680  90.2510 0050701  72.7346 287.9414 14.96726381672529
SMDC ONE 2.4            
1 39469U 13072H   26134.73979862  .00006044  00000+0  24774-3 0  9991
2 39469 120.4885 223.0240 0140164 342.8497  16.7872 15.17527045112751
COSMOS 2488 (RODNIK-S 7)
1 39483U 13076A   26134.95398021  .00000030  00000+0  14674-3 0  9994
2 39483  82.4864 189.3995 0020017 164.5751 195.5942 12.42904562561769
COSMOS 2489 (RODNIK-S 8)
1 39484U 13076B   26134.92848419 -.00000025  00000+0 -25196-3 0  9990
2 39484  82.4901 190.7829 0021871 164.8724 195.3014 12.42879025561815
COSMOS 2490 (RODNIK-S 9)
1 39485U 13076C   26134.90031447 -.00000012  00000+0 -15575-3 0  9990
2 39485  82.4847 188.8827 0021653 180.4451 179.6613 12.42876521561740
KAZEOSAT 1              
1 39731U 14024A   26134.92506078 -.00000057  00000+0 -44784-5 0  9992
2 39731  98.3215 208.1973 0001622  91.5200 268.6176 14.42065188633761
COSMOS 2496 (RODNIK-S *)
1 39761U 14028A   26134.93839339  .00000205  00000+0  14113-2 0  9992
2 39761  82.4419 129.5570 0020512 148.2483 211.9838 12.42877859543383
COSMOS 2497 (RODNIK-S *)
1 39762U 14028B   26134.99459122  .00000162  00000+0  10941-2 0  9994
2 39762  82.4469 131.1989 0021190 143.3155 216.9380 12.42893523543391
COSMOS 2498 (RODNIK-S *)
1 39763U 14028C   26134.97449269  .00000143  00000+0  95638-3 0  9990
2 39763  82.4427 129.7129 0021906 143.1215 217.1376 12.42979847543421
HODOYOSHI-4             
1 40011U 14033B   26134.95106606  .00001457  00000+0  16330-3 0  9998
2 40011  97.5459 321.3807 0025095  57.8447 302.5200 14.88049480643862
UNISAT-6                
1 40012U 14033C   26134.91698539  .00001946  00000+0  21391-3 0  9992
2 40012  97.7840 288.2275 0045373 176.4699 183.6846 14.88040830641218
DEIMOS-2                
1 40013U 14033D   26134.95581812  .00000979  00000+0  97824-4 0  9992
2 40013  97.5886  10.6072 0002611  80.3470 279.8045 14.93631080632765
BUGSAT-1 (TITA)         
1 40014U 14033E   26134.95470892  .00001200  00000+0  67420-4 0  9995
2 40014  98.0414 225.5721 0026727 295.3569  64.4894 15.15219802650802
SAUDISAT 4              
1 40016U 14033G   26134.64145879  .00000440  00000+0  64830-4 0  9994
2 40016  97.7538 281.9460 0044849 180.7176 179.3979 14.79492337641118
APRIZESAT 9             
1 40018U 14033J   26134.60946336  .00000266  00000+0  46852-4 0  9999
2 40018  97.9011 268.6378 0065034 309.0163  50.5266 14.74172750638618
BRITE-CA1 (TORONTO)     
1 40020U 14033L   26134.94844280  .00000412  00000+0  69591-4 0  9992
2 40020  97.9691 264.4990 0079141  24.3162 336.1748 14.72629327637329
